CAS-2T & KS-1Q          
1 41847U 16066G   20291.87072077  .00000078  00000-0  22679-4 0  9990
2 41847  98.6398 343.5334 0364848 223.9481 133.2157 14.38098924207016
NAYIF-1 (EO-88)         
1 42017U 17008BX  20291.65925418  .00001643  00000-0  65055-4 0  9993
2 42017  97.3481 357.3821 0004629 242.0698 118.0073 15.26844319204198
ZHUHAI-1 02 (CAS-4B)    
1 42759U 17034B   20292.47071888  .00000169  00000-0  23716-4 0  9999
2 42759  43.0181  71.1181 0009248  82.3516  24.6204 15.09909977184561
ZHUHAI-1 01 (CAS-4A)    
1 42761U 17034D   20292.47495910  .00000148  00000-0  22378-4 0  9998
2 42761  43.0183  70.3112 0009815  81.8131  26.3545 15.09989157184563
MAX VALIER SAT          
1 42778U 17036P   20291.89943157  .00000940  00000-0  43077-4 0  9993
2 42778  97.2912 342.0694 0010795 317.3132  42.7266 15.22832515184363
RADFXSAT (FOX-1B)       
1 43017U 17073E   20291.70951723  .00000977  00000-0  80777-4 0  9997
2 43017  97.7149 199.1861 0257025  12.2878 348.4444 14.79067934157237
FOX-1D (AO-92)          
1 43137U 18004AC  20292.44464675  .00001145  00000-0  49695-4 0  9994
2 43137  97.4350   2.7149 0008730 354.2021   5.9114 15.24360274153773
DIWATA-2B               
1 43678U 18084H   20292.36730538  .00000318  00000-0  37319-4 0  9998
2 43678  97.8976  50.8628 0011041 125.5526 234.6746 14.91660881107349
ES'HAIL 2               
1 43700U 18090A   20292.09326792  .00000136  00000-0  00000+0 0  9994
2 43700   0.0124 146.9725 0001789  80.2682 219.1990  1.00273500  7183
FOX-1CLIFF (AO-95)      
1 43770U 18099N   20292.45909306  .00000235  00000-0  26590-4 0  9995
2 43770  97.6949   1.6287 0015510 142.4839 217.7468 14.95063305102299
ITASAT 1                
1 43786U 18099AE  20292.16090390  .00000407  00000-0  41976-4 0  9990
2 43786  97.6970   1.8433 0016283 136.8395 223.4105 14.95395417102279
JY1SAT (JO-97)          
1 43803U 18099AX  20292.16038555  .00000492  00000-0  49408-4 0  9997
2 43803  97.6931   1.6339 0016248 137.0341 223.2153 14.95587525102278
PSAT2 (NO-104)          
1 44354U 19036R   20291.31252918  .00008987  00000-0  12646-3 0  9998
2 44354  28.5299 299.0373 0355585 174.4960 185.9683 15.05705993 72184
BRICSAT2 (NO-103)       
1 44355U 19036S   20292.32443962  .00019705  00000-0  26252-3 0  9990
2 44355  28.5307 275.9767 0326015 211.9984 146.0424 15.13206109 72505
JAISAT-1                
1 44419U 19038F   20291.85076929  .00001096  00000-0  65527-4 0  9998
2 44419  97.5538 252.1191 0023110  70.2647 290.1073 15.12979438 71105
DUCHIFAT-3              
1 44854U 19089C   20291.85040092  .00000324  00000-0  32551-4 0  9993
2 44854  36.9651  94.9669 0009831 330.4520  29.5658 14.99155918 46678
RS-44 & BREEZE-KM R/B   
1 44909U 19096E   20291.71379919  .00000004  00000-0 -19595-4 0  9999
2 44909  82.5173 274.0688 0216445 300.8481  57.1485 12.79708579 37820
ORBITAL FACTORY 2 (OF-2)
1 45113U 19071C   20292.38625305  .00001867  00000-0  67576-4 0  9996
2 45113  51.6415 129.5093 0013401 138.6105 221.5894 15.33822681 39990
HUSKYSAT-1              
1 45119U 19071J   20291.82734529  .00002023  00000-0  71879-4 0  9995
2 45119  51.6426 131.7778 0012707 133.3682 226.8360 15.34001631 39905
SALSAT                  
1 46495U 20068K   20291.71741813 -.00000047  00000-0  10888-5 0  9992
2 46495  97.6643 225.0259 0016566 169.8189 190.3371 15.03213231  2867
